IRIDIUM 144             
1 43249U 18030A   25006.40851091  .00000840  00000+0  29275-3 0  9994
2 43249  86.3998 150.6242 0001886  97.2555 262.8855 14.34215334354630
IRIDIUM 149             
1 43250U 18030B   25006.83345519  .00000806  00000+0  28082-3 0  9993
2 43250  86.4000 150.4199 0002108  96.0525 264.0911 14.34212575354718
IRIDIUM 157             
1 43251U 18030C   25006.78272507  .00000374  00000+0  12645-3 0  9992
2 43251  86.3996 150.4827 0002115  88.6533 271.4905 14.34214496354689
IRIDIUM 140             
1 43252U 18030D   25006.80175528  .00000044  00000+0  88276-5 0  9990
2 43252  86.4002 150.4891 0001926  98.2152 261.9262 14.34213946354749
IRIDIUM 145             
1 43253U 18030E   25006.37045528  .00000129  00000+0  39065-4 0  9994
2 43253  86.4001 150.6422 0002137 104.9743 255.1690 14.34215562354619
IRIDIUM 146             
1 43254U 18030F   25006.49096254  .00000356  00000+0  12008-3 0  9999
2 43254  86.4001 150.6059 0002007 105.4543 254.6874 14.34213614354643
IRIDIUM 148             
1 43255U 18030G   25006.45925321  .00000781  00000+0  27195-3 0  9997
2 43255  86.3999 150.6539 0002157  97.9595 262.1845 14.34215347354670
IRIDIUM 142             
1 43256U 18030H   25006.77638481  .00000179  00000+0  56894-4 0  9991
2 43256  86.3997 150.4301 0002358 104.0299 256.1159 14.34214639354683
